$$SOE
2460728.500000000, A.D. 2025-Feb-22 00:00:00.0000, 3.088769460554141E+08, 1.915673647296188E+07, -3.356240161148647E+07,
2460735.500000000, A.D. 2025-Mar-01 00:00:00.0000, 3.123246320662268E+08, 3.027513510561607E+07, -3.039836431224491E+07,
2460742.500000000, A.D. 2025-Mar-08 00:00:00.0000, 3.152883992524543E+08, 4.134671654497921E+07, -2.718719263307879E+07,
2460749.500000000, A.D. 2025-Mar-15 00:00:00.0000, 3.177813024415929E+08, 5.235663548110256E+07, -2.393538648192908E+07,
2460756.500000000, A.D. 2025-Mar-22 00:00:00.0000, 3.198161972702611E+08, 6.329117855021340E+07, -2.064905340584716E+07,
2460763.500000000, A.D. 2025-Mar-29 00:00:00.0000, 3.214057088139819E+08, 7.413766416204409E+07, -1.733393663696436E+07,
2460770.500000000, A.D. 2025-Apr-05 00:00:00.0000, 3.225622097853461E+08, 8.488435125941215E+07, -1.399544162248931E+07,
2460777.500000000, A.D. 2025-Apr-12 00:00:00.0000, 3.232978050191751E+08, 9.552035660544942E+07, -1.063866084521943E+07,
2460784.500000000, A.D. 2025-Apr-19 00:00:00.0000, 3.236243209168032E+08, 1.060355791915044E+08, -7.268397013672821E+06,
2460791.500000000, A.D. 2025-Apr-26 00:00:00.0000, 3.235532991614467E+08, 1.164206310380428E+08, -3.889184710359842E+06,
2460798.500000000, A.D. 2025-May-03 00:00:00.0000, 3.230959940129648E+08, 1.266667738966069E+08, -5.053105695202723E+05,
2460805.500000000, A.D. 2025-May-10 00:00:00.0000, 3.222633725366470E+08, 1.367658613719648E+08, 2.879167941373408E+06,
2460812.500000000, A.D. 2025-May-17 00:00:00.0000, 3.210661172405507E+08, 1.467102859605355E+08, 6.260405051530480E+06,
2460819.500000000, A.D. 2025-May-24 00:00:00.0000, 3.195146308282816E+08, 1.564929305168527E+08, 9.634750427099638E+06,
2460826.500000000, A.D. 2025-May-31 00:00:00.0000, 3.176190430974746E+08, 1.661071240534602E+08, 1.299873402763478E+07,
2460833.500000000, A.D. 2025-Jun-07 00:00:00.0000, 3.153892192567472E+08, 1.755466027017859E+08, 1.634905213357804E+07,
2460840.500000000, A.D. 2025-Jun-14 00:00:00.0000, 3.128347670255458E+08, 1.848054748268467E+08, 1.968255462990281E+07,
2460847.500000000, A.D. 2025-Jun-21 00:00:00.0000, 3.099650435220496E+08, 1.938781867148997E+08, 2.299623309378254E+07,
2460854.500000000, A.D. 2025-Jun-28 00:00:00.0000, 3.067891648921813E+08, 2.027594903074191E+08, 2.628720947295173E+07,
2460861.500000000, A.D. 2025-Jul-05 00:00:00.0000, 3.033160170136215E+08, 2.114444148732278E+08, 2.955272560332096E+07,
2460868.500000000, A.D. 2025-Jul-12 00:00:00.0000, 2.995542659650562E+08, 2.199282415759413E+08, 3.279013354723661E+07,
2460875.500000000, A.D. 2025-Jul-19 00:00:00.0000, 2.955123683572817E+08, 2.282064801457078E+08, 3.599688663031481E+07,
2460882.500000000, A.D. 2025-Jul-26 00:00:00.0000, 2.911985816631142E+08, 2.362748474013776E+08, 3.917053109927443E+07,
2460889.500000000, A.D. 2025-Aug-02 00:00:00.0000, 2.866209745541927E+08, 2.441292474639151E+08, 4.230869834633723E+07,
2460896.500000000, A.D. 2025-Aug-09 00:00:00.0000, 2.817874372223505E+08, 2.517657534806621E+08, 4.540909764949803E+07,
2460903.500000000, A.D. 2025-Aug-16 00:00:00.0000, 2.767056917251475E+08, 2.591805906472033E+08, 4.846950937172589E+07,
2460910.500000000, A.D. 2025-Aug-23 00:00:00.0000, 2.713833026193112E+08, 2.663701204109889E+08, 5.148777855232081E+07,
2460917.500000000, A.D. 2025-Aug-30 00:00:00.0000, 2.658276881931504E+08, 2.733308264545184E+08, 5.446180888153906E+07,
2460924.500000000, A.D. 2025-Sep-06 00:00:00.0000, 2.600461308700096E+08, 2.800593033522202E+08, 5.738955723659168E+07,
2460931.500000000, A.D. 2025-Sep-13 00:00:00.0000, 2.540457851077514E+08, 2.865522453250398E+08, 6.026902869974911E+07,
2460938.500000000, A.D. 2025-Sep-20 00:00:00.0000, 2.478336860763950E+08, 2.928064333665926E+08, 6.309827159853378E+07,
2460945.500000000, A.D. 2025-Sep-27 00:00:00.0000, 2.414167601841547E+08, 2.988187237703974E+08, 6.587537269943108E+07,
2460952.500000000, A.D. 2025-Oct-04 00:00:00.0000, 2.348018354428575E+08, 3.045860385215691E+08, 6.859845275894883E+07,
2460959.500000000, A.D. 2025-Oct-11 00:00:00.0000, 2.279956513092509E+08, 3.101053565445105E+08, 7.126566236648045E+07,
2460966.500000000, A.D. 2025-Oct-18 00:00:00.0000, 2.210048682997857E+08, 3.153737054744885E+08, 7.387517800987323E+07,
2460973.500000000, A.D. 2025-Oct-25 00:00:00.0000, 2.138360775352021E+08, 3.203881539126189E+08, 7.642519833286729E+07,
2460980.500000000, A.D. 2025-Nov-01 00:00:00.0000, 2.064958102736017E+08, 3.251458041336993E+08, 7.891394056462397E+07,
2460987.500000000, A.D. 2025-Nov-08 00:00:00.0000, 1.989905474879015E+08, 3.296437851742048E+08, 8.133963709943239E+07,
2460994.500000000, A.D. 2025-Nov-15 00:00:00.0000, 1.913267296585786E+08, 3.338792462051020E+08, 8.370053219311774E+07,
2461001.500000000, A.D. 2025-Nov-22 00:00:00.0000, 1.835107672092162E+08, 3.378493503775145E+08, 8.599487874314965E+07,
2461008.500000000, A.D. 2025-Nov-29 00:00:00.0000, 1.755490514589770E+08, 3.415512702477692E+08, 8.822093524587570E+07,
2461015.500000000, A.D. 2025-Dec-06 00:00:00.0000, 1.674479638410300E+08, 3.449821846176206E+08, 9.037696311442491E+07,
2461022.500000000, A.D. 2025-Dec-13 00:00:00.0000, 1.592138838436581E+08, 3.481392733988106E+08, 9.246122402994624E+07,
2461029.500000000, A.D. 2025-Dec-20 00:00:00.0000, 1.508531991982234E+08, 3.510197115160255E+08, 9.447197708216654E+07,
2461036.500000000, A.D. 2025-Dec-27 00:00:00.0000, 1.423723172765064E+08, 3.536206644293745E+08, 9.640747600210918E+07,
2461043.500000000, A.D. 2026-Jan-03 00:00:00.0000, 1.337776762735904E+08, 3.559392846518861E+08, 9.826596656323735E+07,
2461050.500000000, A.D. 2026-Jan-10 00:00:00.0000, 1.250757563237221E+08, 3.579727085790602E+08, 1.000456840797912E+08,
2461057.500000000, A.D. 2026-Jan-17 00:00:00.0000, 1.162730908223542E+08, 3.597180535384830E+08, 1.017448509686832E+08,
2461064.500000000, A.D. 2026-Jan-24 00:00:00.0000, 1.073762780752440E+08, 3.611724150850344E+08, 1.033616743653510E+08,
2461071.500000000, A.D. 2026-Jan-31 00:00:00.0000, 9.839199334312008E+07, 3.623328645408548E+08, 1.048943437871369E+08,
2461078.500000000, A.D. 2026-Feb-07 00:00:00.0000, 8.932700139080481E+07, 3.631964467335322E+08, 1.063410288310425E+08,
2461085.500000000, A.D. 2026-Feb-14 00:00:00.0000, 8.018816984375349E+07, 3.637601779329321E+08, 1.076998768797638E+08,
2461092.500000000, A.D. 2026-Feb-21 00:00:00.0000, 7.098248379274940E+07, 3.640210445855936E+08, 1.089690108277838E+08,
2461099.500000000, A.D. 2026-Feb-28 00:00:00.0000, 6.171706062064987E+07, 3.639760040277521E+08, 1.101465270230096E+08,
2461106.500000000, A.D. 2026-Mar-07 00:00:00.0000, 5.239916305486909E+07, 3.636219852551058E+08, 1.112304934539804E+08,
2461113.500000000, A.D. 2026-Mar-14 00:00:00.0000, 4.303621328136853E+07, 3.629558874524239E+08, 1.122189477403695E+08,
2461120.500000000, A.D. 2026-Mar-21 00:00:00.0000, 3.363580997106810E+07, 3.619745792325702E+08, 1.131098950092478E+08,
2461127.500000000, A.D. 2026-Mar-28 00:00:00.0000, 2.420574628615014E+07, 3.606748996695828E+08, 1.139013059348423E+08,
2461134.500000000, A.D. 2026-Apr-04 00:00:00.0000, 1.475402834192001E+07, 3.590536602225982E+08, 1.145911149287635E+08,
2461141.500000000, A.D. 2026-Apr-11 00:00:00.0000, 5.288894482641919E+06, 3.571076472647850E+08, 1.151772184400420E+08,
2461148.500000000, A.D. 2026-Apr-18 00:00:00.0000, -4.181164378057363E+06, 3.548336252963136E+08, 1.156574733663280E+08,
2461155.500000000, A.D. 2026-Apr-25 00:00:00.0000, -1.364738320920991E+07, 3.522283409534339E+08, 1.160296955917366E+08,
2461162.500000000, A.D. 2026-May-02 00:00:00.0000, -2.310069997535309E+07, 3.492885278950012E+08, 1.162916586672799E+08,
2461169.500000000, A.D. 2026-May-09 00:00:00.0000, -3.253173118260624E+07, 3.460109126290188E+08, 1.164410926434929E+08,
2461176.500000000, A.D. 2026-May-16 00:00:00.0000, -4.193074537429880E+07, 3.423922215695890E+08, 1.164756830669291E+08,
2461183.500000000, A.D. 2026-May-23 00:00:00.0000, -5.128763441312920E+07, 3.384291905269122E+08, 1.163930702651170E+08,
2461190.500000000, A.D. 2026-May-30 00:00:00.0000, -6.059188450703678E+07, 3.341185771598809E+08, 1.161908491921541E+08,
2461197.500000000, A.D. 2026-Jun-06 00:00:00.0000, -6.983254716609639E+07, 3.294571733500078E+08, 1.158665696559120E+08,
2461204.500000000, A.D. 2026-Jun-13 00:00:00.0000, -7.899820629993251E+07, 3.244418179579929E+08, 1.154177366752417E+08,
2461211.500000000, A.D. 2026-Jun-20 00:00:00.0000, -8.807694183271115E+07, 3.190694132002659E+08, 1.148418113380940E+08,
2461218.500000000, A.D. 2026-Jun-27 00:00:00.0000, -9.705629140693057E+07, 3.133369446590713E+08, 1.141362123865279E+08,
2461225.500000000, A.D. 2026-Jul-04 00:00:00.0000, -1.059232100569474E+08, 3.072415045512120E+08, 1.132983185784083E+08,
2461232.500000000, A.D. 2026-Jul-11 00:00:00.0000, -1.146640274915106E+08, 3.007803185826679E+08, 1.123254719259796E+08,
2461239.500000000, A.D. 2026-Jul-18 00:00:00.0000, -1.232644028022941E+08, 2.939507769412915E+08, 1.112149819634620E+08,
2461246.500000000, A.D. 2026-Jul-25 00:00:00.0000, -1.317092765076915E+08, 2.867504700321234E+08, 1.099641312278729E+08,
2461253.500000000, A.D. 2026-Aug-01 00:00:00.0000, -1.399828198515999E+08, 2.791772295936852E+08, 1.085701821628439E+08,
2461260.500000000, A.D. 2026-Aug-08 00:00:00.0000, -1.480683811572510E+08, 2.712291759406399E+08, 1.070303856777275E+08,
2461267.500000000, A.D. 2026-Aug-15 00:00:00.0000, -1.559484289001902E+08, 2.629047726702508E+08, 1.053419916583032E+08,
2461274.500000000, A.D. 2026-Aug-22 00:00:00.0000, -1.636044924274076E+08, 2.542028910602351E+08, 1.035022619467849E+08,
2461281.500000000, A.D. 2026-Aug-29 00:00:00.0000, -1.710171028874401E+08, 2.451228839265128E+08, 1.015084862954937E+08,
2461288.500000000, A.D. 2026-Sep-05 00:00:00.0000, -1.781657326469709E+08, 2.356646673489377E+08, 9.935800132904890E+07,
2461295.500000000, A.D. 2026-Sep-12 00:00:00.0000, -1.850287313385756E+08, 2.258288141749066E+08, 9.704821302787016E+07,
$$EOE